{
  "type": "FeatureCollection",
  "features": [
    {
      "type": "Feature",
      "properties": {
        "GOVERNORATE_A": "Amman",
        "GOVERNORATE_AR": "عمان",
        "center": [35.95, 31.95]
      },
      "geometry": {
        "type": "Polygon",
        "coordinates": [[
          [35.6, 32.0], [36.0, 32.1], [36.3, 31.9], [36.4, 31.8],
          [36.3, 31.7], [36.0, 31.6], [35.7, 31.6], [35.6, 31.8], [35.6, 32.0]
        ]]
      }
    },
    {
      "type": "Feature",
      "properties": {
        "GOVERNORATE_A": "Irbid",
        "GOVERNORATE_AR": "إربد",
        "center": [35.85, 32.55]
      },
      "geometry": {
        "type": "Polygon",
        "coordinates": [[
          [35.7, 32.7], [36.0, 32.7], [36.2, 32.6], [36.3, 32.4],
          [36.2, 32.2], [35.9, 32.2], [35.7, 32.4], [35.7, 32.7]
        ]]
      }
    },
    {
      "type": "Feature",
      "properties": {
        "GOVERNORATE_A": "Zarqa",
        "GOVERNORATE_AR": "الزرقاء",
        "center": [36.10, 32.07]
      },
      "geometry": {
        "type": "Polygon",
        "coordinates": [[
          [36.0, 32.2], [36.2, 32.2], [36.4, 32.0], [36.4, 31.8],
          [36.2, 31.6], [36.0, 31.7], [36.0, 31.9], [36.0, 32.2]
        ]]
      }
    },
    {
      "type": "Feature",
      "properties": {
        "GOVERNORATE_A": "Mafraq",
        "GOVERNORATE_AR": "المفرق",
        "center": [36.20, 32.34]
      },
      "geometry": {
        "type": "Polygon",
        "coordinates": [[
          [36.2, 32.6], [36.5, 32.5], [36.8, 32.3], [37.0, 32.0],
          [36.8, 31.9], [36.5, 31.9], [36.2, 32.0], [36.0, 32.2],
          [36.2, 32.4], [36.2, 32.6]
        ]]
      }
    },
    {
      "type": "Feature",
      "properties": {
        "GOVERNORATE_A": "Jerash",
        "GOVERNORATE_AR": "جرش",
        "center": [35.90, 32.28]
      },
      "geometry": {
        "type": "Polygon",
        "coordinates": [[
          [35.8, 32.4], [36.0, 32.4], [36.1, 32.2], [36.0, 32.1],
          [35.8, 32.1], [35.7, 32.3], [35.8, 32.4]
        ]]
      }
    },
    {
      "type": "Feature",
      "properties": {
        "GOVERNORATE_A": "Ajloun",
        "GOVERNORATE_AR": "عجلون",
        "center": [35.75, 32.33]
      },
      "geometry": {
        "type": "Polygon",
        "coordinates": [[
          [35.6, 32.5], [35.8, 32.5], [35.9, 32.3], [35.8, 32.1],
          [35.6, 32.1], [35.5, 32.3], [35.6, 32.5]
        ]]
      }
    },
    {
      "type": "Feature",
      "properties": {
        "GOVERNORATE_A": "Balqa",
        "GOVERNORATE_AR": "البلقاء",
        "center": [35.78, 32.04]
      },
      "geometry": {
        "type": "Polygon",
        "coordinates": [[
          [35.6, 32.1], [35.8, 32.1], [36.0, 32.0], [36.0, 31.8],
          [35.8, 31.7], [35.6, 31.8], [35.5, 31.9], [35.6, 32.1]
        ]]
      }
    },
    {
      "type": "Feature",
      "properties": {
        "GOVERNORATE_A": "Madaba",
        "GOVERNORATE_AR": "مادبا",
        "center": [35.79, 31.72]
      },
      "geometry": {
        "type": "Polygon",
        "coordinates": [[
          [35.6, 31.9], [35.8, 31.9], [36.0, 31.7], [35.9, 31.5],
          [35.7, 31.5], [35.5, 31.6], [35.6, 31.9]
        ]]
      }
    },
    {
      "type": "Feature",
      "properties": {
        "GOVERNORATE_A": "Karak",
        "GOVERNORATE_AR": "الكرك",
        "center": [35.70, 31.18]
      },
      "geometry": {
        "type": "Polygon",
        "coordinates": [[
          [35.6, 31.5], [36.0, 31.5], [36.2, 31.3], [36.1, 31.0],
          [35.8, 30.9], [35.5, 31.0], [35.5, 31.3], [35.6, 31.5]
        ]]
      }
    },
    {
      "type": "Feature",
      "properties": {
        "GOVERNORATE_A": "Tafileh",
        "GOVERNORATE_AR": "الطفيلة",
        "center": [35.60, 30.83]
      },
      "geometry": {
        "type": "Polygon",
        "coordinates": [[
          [35.4, 31.1], [35.7, 31.1], [35.9, 30.9], [35.8, 30.7],
          [35.5, 30.6], [35.3, 30.7], [35.3, 30.9], [35.4, 31.1]
        ]]
      }
    },
    {
      "type": "Feature",
      "properties": {
        "GOVERNORATE_A": "Maan",
        "GOVERNORATE_AR": "معان",
        "center": [35.73, 30.20]
      },
      "geometry": {
        "type": "Polygon",
        "coordinates": [[
          [35.3, 30.8], [35.7, 30.7], [36.0, 30.5], [36.2, 30.1],
          [36.0, 29.8], [35.5, 29.8], [35.1, 30.0], [35.1, 30.4],
          [35.3, 30.8]
        ]]
      }
    },
    {
      "type": "Feature",
      "properties": {
        "GOVERNORATE_A": "Aqaba",
        "GOVERNORATE_AR": "العقبة",
        "center": [35.00, 29.53]
      },
      "geometry": {
        "type": "Polygon",
        "coordinates": [[
          [34.9, 29.8], [35.2, 29.8], [35.4, 29.6], [35.3, 29.2],
          [35.0, 29.2], [34.8, 29.4], [34.9, 29.8]
        ]]
      }
    }
  ]
}
