{
  "type": "FeatureCollection",
  "name": "jordan_governorates",
  "crs": { "type": "name", "properties": { "name": "urn:ogc:def:crs:OGC:1.3:CRS84" } },
  "features": [
    {
      "type": "Feature",
      "properties": {
        "id": "JO-AM", "name": "Amman", "name_ar": "عمان",
        "level": "governorate", "admin_code": "JO-AM",
        "population": 4007526, "center": [35.94, 31.94], "area_sqkm": 7590
      },
      "geometry": {
        "type": "Polygon",
        "coordinates": [[[35.63, 31.52], [35.72, 31.48], [35.85, 31.46], [35.98, 31.45], [36.12, 31.47], [36.25, 31.50], [36.32, 31.54], [36.36, 31.58], [36.38, 31.65], [36.37, 31.75], [36.34, 31.82], [36.30, 31.88], [36.25, 31.94], [36.18, 31.98], [36.08, 32.01], [35.98, 32.03], [35.90, 32.05], [35.82, 32.06], [35.72, 32.05], [35.65, 32.02], [35.58, 31.96], [35.55, 31.88], [35.56, 31.80], [35.58, 31.72], [35.62, 31.65], [35.65, 31.58], [35.63, 31.52]]]
      }
    },
    {
      "type": "Feature",
      "properties": {
        "id": "JO-IR", "name": "Irbid", "name_ar": "إربد",
        "level": "governorate", "admin_code": "JO-IR",
        "population": 1153000, "center": [35.87, 32.56], "area_sqkm": 1782
      },
      "geometry": {
        "type": "Polygon",
        "coordinates": [[[35.52, 32.42], [35.58, 32.38], [35.65, 32.35], [35.72, 32.35], [35.78, 32.36], [35.82, 32.40], [35.85, 32.46], [35.88, 32.54], [35.92, 32.62], [35.95, 32.70], [35.96, 32.80], [35.94, 32.90], [35.90, 32.98], [35.85, 33.04], [35.78, 33.10], [35.70, 33.14], [35.62, 33.16], [35.55, 33.14], [35.50, 33.10], [35.48, 33.02], [35.48, 32.92], [35.50, 32.82], [35.51, 32.72], [35.50, 32.62], [35.50, 32.52], [35.52, 32.42]]]
      }
    },
    {
      "type": "Feature",
      "properties": {
        "id": "JO-ZA", "name": "Zarqa", "name_ar": "الزرقاء",
        "level": "governorate", "admin_code": "JO-ZA",
        "population": 1365396, "center": [36.18, 32.15], "area_sqkm": 4761
      },
      "geometry": {
        "type": "Polygon",
        "coordinates": [[[35.88, 31.92], [35.95, 31.88], [36.05, 31.86], [36.15, 31.86], [36.25, 31.88], [36.35, 31.90], [36.45, 31.92], [36.55, 31.94], [36.60, 31.98], [36.62, 32.05], [36.63, 32.12], [36.62, 32.20], [36.60, 32.28], [36.55, 32.35], [36.48, 32.42], [36.40, 32.46], [36.30, 32.48], [36.20, 32.48], [36.10, 32.46], [36.00, 32.42], [35.92, 32.36], [35.88, 32.28], [35.86, 32.20], [35.86, 32.08], [35.88, 31.98], [35.88, 31.92]]]
      }
    },
    {
      "type": "Feature",
      "properties": {
        "id": "JO-BA", "name": "Balqa", "name_ar": "البلقاء",
        "level": "governorate", "admin_code": "JO-BA",
        "population": 428700, "center": [35.70, 32.08], "area_sqkm": 1165
      },
      "geometry": {
        "type": "Polygon",
        "coordinates": [[[35.46, 31.90], [35.52, 31.86], [35.58, 31.84], [35.65, 31.84], [35.72, 31.84], [35.78, 31.85], [35.82, 31.88], [35.86, 31.94], [35.88, 32.02], [35.88, 32.10], [35.88, 32.20], [35.86, 32.28], [35.82, 32.36], [35.78, 32.40], [35.72, 32.42], [35.65, 32.42], [35.58, 32.40], [35.52, 32.36], [35.48, 32.30], [35.44, 32.22], [35.42, 32.14], [35.42, 32.06], [35.44, 31.98], [35.46, 31.90]]]
      }
    },
    {
      "type": "Feature",
      "properties": {
        "id": "JO-MD", "name": "Madaba", "name_ar": "مادبا",
        "level": "governorate", "admin_code": "JO-MD",
        "population": 178000, "center": [35.78, 31.72], "area_sqkm": 940
      },
      "geometry": {
        "type": "Polygon",
        "coordinates": [[[35.50, 31.26], [35.56, 31.24], [35.62, 31.24], [35.68, 31.26], [35.74, 31.28], [35.80, 31.30], [35.86, 31.34], [35.90, 31.38], [35.92, 31.44], [35.92, 31.50], [35.90, 31.56], [35.86, 31.60], [35.80, 31.64], [35.74, 31.66], [35.68, 31.66], [35.62, 31.64], [35.56, 31.60], [35.52, 31.56], [35.48, 31.50], [35.46, 31.44], [35.46, 31.38], [35.46, 31.32], [35.48, 31.28], [35.50, 31.26]]]
      }
    },
    {
      "type": "Feature",
      "properties": {
        "id": "JO-JA", "name": "Jerash", "name_ar": "جرش",
        "level": "governorate", "admin_code": "JO-JA",
        "population": 201000, "center": [35.90, 32.30], "area_sqkm": 410
      },
      "geometry": {
        "type": "Polygon",
        "coordinates": [[[35.86, 32.18], [35.90, 32.15], [35.94, 32.14], [35.98, 32.15], [36.02, 32.16], [36.06, 32.18], [36.10, 32.20], [36.14, 32.24], [36.16, 32.28], [36.16, 32.34], [36.14, 32.40], [36.10, 32.44], [36.06, 32.42], [36.02, 32.40], [35.98, 32.38], [35.94, 32.36], [35.90, 32.34], [35.86, 32.32], [35.84, 32.28], [35.84, 32.24], [35.86, 32.18]]]
      }
    },
    {
      "type": "Feature",
      "properties": {
        "id": "JO-AJ", "name": "Ajloun", "name_ar": "عجلون",
        "level": "governorate", "admin_code": "JO-AJ",
        "population": 176000, "center": [35.72, 32.33], "area_sqkm": 420
      },
      "geometry": {
        "type": "Polygon",
        "coordinates": [[[35.58, 32.24], [35.62, 32.22], [35.66, 32.22], [35.70, 32.22], [35.74, 32.24], [35.76, 32.28], [35.78, 32.32], [35.78, 32.38], [35.76, 32.42], [35.72, 32.44], [35.68, 32.42], [35.64, 32.40], [35.60, 32.38], [35.56, 32.34], [35.54, 32.30], [35.54, 32.26], [35.56, 32.24], [35.58, 32.24]]]
      }
    },
    {
      "type": "Feature",
      "properties": {
        "id": "JO-MA", "name": "Mafraq", "name_ar": "المفرق",
        "level": "governorate", "admin_code": "JO-MA",
        "population": 590700, "center": [36.84, 32.18], "area_sqkm": 13620
      },
      "geometry": {
        "type": "Polygon",
        "coordinates": [[[35.98, 32.06], [36.08, 32.02], [36.18, 32.00], [36.28, 32.00], [36.38, 32.02], [36.48, 32.02], [36.58, 32.00], [36.68, 31.98], [36.78, 31.96], [36.88, 31.94], [36.98, 31.94], [37.08, 31.94], [37.18, 31.94], [37.28, 31.94], [37.38, 31.92], [37.48, 31.90], [37.58, 31.88], [37.68, 31.86], [37.78, 31.84], [37.88, 31.82], [37.98, 31.80], [38.08, 31.78], [38.18, 31.76], [38.28, 31.74], [38.38, 31.72], [38.50, 31.72], [38.60, 31.72], [38.70, 31.72], [38.80, 31.72], [38.90, 31.72], [39.00, 31.72], [39.10, 31.72], [39.20, 31.72], [39.30, 31.74], [39.30, 31.88], [39.30, 32.00], [39.30, 32.12], [39.30, 32.24], [39.30, 32.36], [39.28, 32.48], [39.26, 32.60], [39.24, 32.72], [39.22, 32.84], [39.18, 32.96], [39.14, 33.08], [39.10, 33.20], [39.06, 33.28], [39.00, 33.34], [38.92, 33.36], [38.82, 33.36], [38.70, 33.36], [38.58, 33.36], [38.46, 33.36], [38.34, 33.36], [38.22, 33.36], [38.10, 33.36], [37.98, 33.36], [37.86, 33.36], [37.72, 33.36], [37.58, 33.36], [37.44, 33.38], [37.30, 33.38], [37.16, 33.38], [37.02, 33.38], [36.88, 33.38], [36.72, 33.38], [36.56, 33.38], [36.40, 33.36], [36.24, 33.34], [36.10, 33.30], [35.98, 33.26], [35.86, 33.20], [35.76, 33.14], [35.68, 33.06], [35.62, 32.96], [35.58, 32.86], [35.56, 32.76], [35.55, 32.66], [35.55, 32.56], [35.56, 32.46], [35.58, 32.36], [35.62, 32.26], [35.66, 32.16], [35.70, 32.10], [35.76, 32.06], [35.84, 32.04], [35.92, 32.04], [35.98, 32.06], [35.98, 32.06]]]
      }
    },
    {
      "type": "Feature",
      "properties": {
        "id": "JO-KA", "name": "Karak", "name_ar": "الكرك",
        "level": "governorate", "admin_code": "JO-KA",
        "population": 328600, "center": [35.70, 31.18], "area_sqkm": 3495
      },
      "geometry": {
        "type": "Polygon",
        "coordinates": [[[35.36, 30.74], [35.40, 30.70], [35.46, 30.68], [35.52, 30.68], [35.58, 30.70], [35.64, 30.72], [35.70, 30.74], [35.76, 30.76], [35.80, 30.80], [35.84, 30.86], [35.88, 30.92], [35.92, 31.00], [35.94, 31.08], [35.94, 31.16], [35.92, 31.24], [35.90, 31.30], [35.86, 31.36], [35.82, 31.42], [35.78, 31.46], [35.74, 31.48], [35.70, 31.48], [35.66, 31.46], [35.62, 31.44], [35.58, 31.40], [35.56, 31.34], [35.54, 31.28], [35.52, 31.22], [35.50, 31.16], [35.48, 31.10], [35.46, 31.04], [35.44, 30.96], [35.42, 30.88], [35.40, 30.82], [35.38, 30.78], [35.36, 30.74]]]
      }
    },
    {
      "type": "Feature",
      "properties": {
        "id": "JO-TA", "name": "Tafilah", "name_ar": "الطفيلة",
        "level": "governorate", "admin_code": "JO-TA",
        "population": 96400, "center": [35.58, 30.72], "area_sqkm": 1929
      },
      "geometry": {
        "type": "Polygon",
        "coordinates": [[[35.24, 30.40], [35.28, 30.36], [35.34, 30.34], [35.40, 30.34], [35.46, 30.34], [35.52, 30.34], [35.58, 30.34], [35.64, 30.34], [35.70, 30.34], [35.76, 30.34], [35.82, 30.34], [35.88, 30.34], [35.92, 30.38], [35.94, 30.44], [35.94, 30.50], [35.92, 30.56], [35.90, 30.62], [35.86, 30.68], [35.82, 30.72], [35.78, 30.76], [35.72, 30.78], [35.66, 30.78], [35.60, 30.78], [35.54, 30.76], [35.48, 30.74], [35.42, 30.72], [35.36, 30.68], [35.30, 30.64], [35.26, 30.58], [35.24, 30.52], [35.22, 30.46], [35.22, 30.42], [35.24, 30.40]]]
      }
    },
    {
      "type": "Feature",
      "properties": {
        "id": "JO-MN", "name": "Ma'an", "name_ar": "معان",
        "level": "governorate", "admin_code": "JO-MN",
        "population": 150800, "center": [35.78, 30.12], "area_sqkm": 32832
      },
      "geometry": {
        "type": "Polygon",
        "coordinates": [[[35.06, 29.56], [35.10, 29.52], [35.16, 29.50], [35.22, 29.50], [35.28, 29.50], [35.34, 29.50], [35.40, 29.50], [35.46, 29.50], [35.52, 29.50], [35.58, 29.50], [35.64, 29.50], [35.70, 29.50], [35.76, 29.50], [35.82, 29.50], [35.88, 29.50], [35.94, 29.50], [36.00, 29.50], [36.06, 29.50], [36.12, 29.50], [36.18, 29.50], [36.24, 29.50], [36.30, 29.50], [36.36, 29.50], [36.42, 29.50], [36.48, 29.50], [36.54, 29.50], [36.60, 29.50], [36.66, 29.50], [36.72, 29.50], [36.78, 29.50], [36.84, 29.50], [36.90, 29.50], [36.96, 29.50], [37.02, 29.50], [37.08, 29.50], [37.14, 29.50], [37.20, 29.48], [37.26, 29.48], [37.32, 29.48], [37.38, 29.48], [37.44, 29.48], [37.50, 29.48], [37.56, 29.48], [37.62, 29.48], [37.68, 29.48], [37.74, 29.48], [37.80, 29.48], [37.86, 29.48], [37.92, 29.48], [37.98, 29.48], [38.04, 29.48], [38.10, 29.48], [38.16, 29.48], [38.22, 29.48], [38.28, 29.48], [38.34, 29.48], [38.40, 29.48], [38.46, 29.48], [38.50, 29.50], [38.50, 29.58], [38.50, 29.66], [38.50, 29.74], [38.50, 29.82], [38.50, 29.90], [38.50, 29.98], [38.50, 30.06], [38.50, 30.14], [38.50, 30.22], [38.50, 30.30], [38.50, 30.38], [38.48, 30.42], [38.44, 30.42], [38.38, 30.42], [38.32, 30.42], [38.26, 30.42], [38.20, 30.42], [38.14, 30.42], [38.08, 30.42], [38.02, 30.42], [37.96, 30.42], [37.90, 30.42], [37.84, 30.42], [37.78, 30.42], [37.72, 30.42], [37.66, 30.42], [37.60, 30.42], [37.54, 30.42], [37.48, 30.42], [37.42, 30.42], [37.36, 30.42], [37.30, 30.42], [37.24, 30.42], [37.18, 30.42], [37.12, 30.42], [37.06, 30.42], [37.00, 30.42], [36.94, 30.42], [36.88, 30.42], [36.82, 30.42], [36.76, 30.42], [36.70, 30.42], [36.64, 30.42], [36.58, 30.42], [36.52, 30.42], [36.46, 30.42], [36.40, 30.42], [36.34, 30.42], [36.28, 30.42], [36.22, 30.42], [36.16, 30.42], [36.10, 30.42], [36.04, 30.42], [35.98, 30.42], [35.92, 30.42], [35.86, 30.42], [35.80, 30.42], [35.74, 30.42], [35.68, 30.42], [35.62, 30.42], [35.56, 30.42], [35.50, 30.42], [35.44, 30.42], [35.38, 30.42], [35.32, 30.42], [35.26, 30.40], [35.20, 30.38], [35.14, 30.36], [35.10, 30.34], [35.06, 30.32], [35.04, 30.28], [35.02, 30.24], [35.00, 30.20], [34.98, 30.16], [34.96, 30.12], [34.94, 30.08], [34.92, 30.04], [34.90, 30.00], [34.90, 29.88], [34.90, 29.76], [34.90, 29.64], [34.90, 29.56], [34.92, 29.52], [34.96, 29.50], [35.00, 29.48], [35.04, 29.46], [35.06, 29.42], [35.06, 29.56]]]
      }
    },
    {
      "type": "Feature",
      "properties": {
        "id": "JO-AQ", "name": "Aqaba", "name_ar": "العقبة",
        "level": "governorate", "admin_code": "JO-AQ",
        "population": 199000, "center": [35.02, 29.54], "area_sqkm": 6900
      },
      "geometry": {
        "type": "Polygon",
        "coordinates": [[[34.90, 29.18], [34.92, 29.14], [34.96, 29.12], [35.00, 29.12], [35.04, 29.12], [35.08, 29.12], [35.12, 29.12], [35.16, 29.12], [35.20, 29.12], [35.24, 29.12], [35.28, 29.12], [35.32, 29.14], [35.36, 29.16], [35.40, 29.18], [35.44, 29.20], [35.48, 29.22], [35.52, 29.24], [35.56, 29.26], [35.60, 29.28], [35.64, 29.30], [35.68, 29.32], [35.72, 29.34], [35.76, 29.36], [35.80, 29.38], [35.84, 29.40], [35.88, 29.42], [35.90, 29.46], [35.90, 29.50], [35.88, 29.54], [35.86, 29.58], [35.84, 29.62], [35.82, 29.66], [35.80, 29.70], [35.78, 29.74], [35.76, 29.78], [35.74, 29.82], [35.72, 29.86], [35.70, 29.90], [35.68, 29.94], [35.66, 29.98], [35.64, 30.02], [35.62, 30.06], [35.60, 30.10], [35.58, 30.14], [35.56, 30.18], [35.54, 30.22], [35.52, 30.26], [35.50, 30.30], [35.48, 30.34], [35.46, 30.38], [35.44, 30.42], [35.42, 30.46], [35.40, 30.50], [35.38, 30.54], [35.36, 30.58], [35.34, 30.62], [35.32, 30.66], [35.30, 30.70], [35.28, 30.74], [35.26, 30.78], [35.24, 30.82], [35.22, 30.86], [35.20, 30.90], [35.18, 30.94], [35.16, 30.98], [35.14, 31.02], [35.12, 31.06], [35.10, 31.10], [35.08, 31.14], [35.06, 31.18], [35.04, 31.22], [35.02, 31.26], [35.00, 31.30], [34.98, 31.34], [34.96, 31.38], [34.94, 31.42], [34.92, 31.46], [34.90, 31.50], [34.90, 31.42], [34.90, 31.34], [34.90, 31.26], [34.90, 31.18], [34.90, 31.10], [34.90, 31.02], [34.90, 30.94], [34.90, 30.86], [34.90, 30.78], [34.90, 30.70], [34.90, 30.62], [34.90, 30.54], [34.90, 30.46], [34.90, 30.38], [34.90, 30.30], [34.90, 30.22], [34.90, 30.14], [34.90, 30.06], [34.90, 29.98], [34.90, 29.90], [34.90, 29.82], [34.90, 29.74], [34.90, 29.66], [34.90, 29.58], [34.90, 29.50], [34.90, 29.42], [34.90, 29.34], [34.90, 29.26], [34.90, 29.18]]]
      }
    }
  ]
}
