{"type": "FeatureCollection", "name": "jordan_governorates", "crs": {"type": "name", "properties": {"name": "urn:ogc:def:crs:OGC:1.3:CRS84"}}, "features": [{"type": "Feature", "properties": {"id": "JO-AM", "name": "Amman", "name_ar": "\u0639\u0645\u0627\u0646", "level": "governorate", "admin_code": "JO-AM", "population": 4007526, "center": [35.94, 31.94], "area_sqkm": 7590, "kindergarten_status": 96.67, "children_enrollment": 93.48, "staff_classrooms": 95.7, "safety_incidents": 90.0, "reports_attendance": 97.28, "tasks_governance": 79.6, "kindergartens_active": 145, "kindergartens_inactive": 5, "enrolled_children": 4298, "unregistered_children": 300, "supervisors_count": 48, "classes_count": 186, "classes_without_supervisor": 8, "critical_incidents": 1, "protection_issues": 0, "daily_reports_count": 145, "absences_total": 168, "absences_health_alerts": 13, "tasks_overdue": 3, "governance_score": 80.5, "training_completion_pct": 84.5}, "geometry": {"type": "Polygon", "coordinates": [[[35.63, 31.52], [35.72, 31.48], [35.85, 31.46], [35.98, 31.45], [36.12, 31.47], [36.25, 31.5], [36.32, 31.54], [36.36, 31.58], [36.38, 31.65], [36.37, 31.75], [36.34, 31.82], [36.3, 31.88], [36.25, 31.94], [36.18, 31.98], [36.08, 32.01], [35.98, 32.03], [35.9, 32.05], [35.82, 32.06], [35.72, 32.05], [35.65, 32.02], [35.58, 31.96], [35.55, 31.88], [35.56, 31.8], [35.58, 31.72], [35.62, 31.65], [35.65, 31.58], [35.63, 31.52]]]}}, {"type": "Feature", "properties": {"id": "JO-IR", "name": "Irbid", "name_ar": "\u0625\u0631\u0628\u062f", "level": "governorate", "admin_code": "JO-IR", "population": 1153000, "center": [35.87, 32.56], "area_sqkm": 1782, "kindergarten_status": 98.08, "children_enrollment": 93.89, "staff_classrooms": 96.18, "safety_incidents": 100.0, "reports_attendance": 97.61, "tasks_governance": 87.65, "kindergartens_active": 102, "kindergartens_inactive": 2, "enrolled_children": 2980, "unregistered_children": 194, "supervisors_count": 35, "classes_count": 131, "classes_without_supervisor": 5, "critical_incidents": 0, "protection_issues": 0, "daily_reports_count": 102, "absences_total": 105, "absences_health_alerts": 7, "tasks_overdue": 1, "governance_score": 85.0, "training_completion_pct": 90.5}, "geometry": {"type": "Polygon", "coordinates": [[[35.52, 32.42], [35.58, 32.38], [35.65, 32.35], [35.72, 32.35], [35.78, 32.36], [35.82, 32.4], [35.85, 32.46], [35.88, 32.54], [35.92, 32.62], [35.95, 32.7], [35.96, 32.8], [35.94, 32.9], [35.9, 32.98], [35.85, 33.04], [35.78, 33.1], [35.7, 33.14], [35.62, 33.16], [35.55, 33.14], [35.5, 33.1], [35.48, 33.02], [35.48, 32.92], [35.5, 32.82], [35.51, 32.72], [35.5, 32.62], [35.5, 32.52], [35.52, 32.42]]]}}, {"type": "Feature", "properties": {"id": "JO-ZA", "name": "Zarqa", "name_ar": "\u0627\u0644\u0632\u0631\u0642\u0627\u0621", "level": "governorate", "admin_code": "JO-ZA", "population": 1365396, "center": [36.18, 32.15], "area_sqkm": 4761, "kindergarten_status": 96.77, "children_enrollment": 92.6, "staff_classrooms": 92.72, "safety_incidents": 100.0, "reports_attendance": 95.52, "tasks_governance": 70.0, "kindergartens_active": 120, "kindergartens_inactive": 4, "enrolled_children": 3228, "unregistered_children": 258, "supervisors_count": 41, "classes_count": 151, "classes_without_supervisor": 11, "critical_incidents": 0, "protection_issues": 0, "daily_reports_count": 119, "absences_total": 150, "absences_health_alerts": 20, "tasks_overdue": 5, "governance_score": 73.5, "training_completion_pct": 77.5}, "geometry": {"type": "Polygon", "coordinates": [[[35.88, 31.92], [35.95, 31.88], [36.05, 31.86], [36.15, 31.86], [36.25, 31.88], [36.35, 31.9], [36.45, 31.92], [36.55, 31.94], [36.6, 31.98], [36.62, 32.05], [36.63, 32.12], [36.62, 32.2], [36.6, 32.28], [36.55, 32.35], [36.48, 32.42], [36.4, 32.46], [36.3, 32.48], [36.2, 32.48], [36.1, 32.46], [36.0, 32.42], [35.92, 32.36], [35.88, 32.28], [35.86, 32.2], [35.86, 32.08], [35.88, 31.98], [35.88, 31.92]]]}}, {"type": "Feature", "properties": {"id": "JO-BA", "name": "Balqa", "name_ar": "\u0627\u0644\u0628\u0644\u0642\u0627\u0621", "level": "governorate", "admin_code": "JO-BA", "population": 428700, "center": [35.7, 32.08], "area_sqkm": 1165, "kindergarten_status": 97.01, "children_enrollment": 93.18, "staff_classrooms": 96.43, "safety_incidents": 100.0, "reports_attendance": 97.97, "tasks_governance": 92.15, "kindergartens_active": 65, "kindergartens_inactive": 2, "enrolled_children": 1748, "unregistered_children": 128, "supervisors_count": 25, "classes_count": 84, "classes_without_supervisor": 3, "critical_incidents": 0, "protection_issues": 0, "daily_reports_count": 65, "absences_total": 61, "absences_health_alerts": 3, "tasks_overdue": 0, "governance_score": 88.5, "training_completion_pct": 93.0}, "geometry": {"type": "Polygon", "coordinates": [[[35.46, 31.9], [35.52, 31.86], [35.58, 31.84], [35.65, 31.84], [35.72, 31.84], [35.78, 31.85], [35.82, 31.88], [35.86, 31.94], [35.88, 32.02], [35.88, 32.1], [35.88, 32.2], [35.86, 32.28], [35.82, 32.36], [35.78, 32.4], [35.72, 32.42], [35.65, 32.42], [35.58, 32.4], [35.52, 32.36], [35.48, 32.3], [35.44, 32.22], [35.42, 32.14], [35.42, 32.06], [35.44, 31.98], [35.46, 31.9]]]}}, {"type": "Feature", "properties": {"id": "JO-MD", "name": "Madaba", "name_ar": "\u0645\u0627\u062f\u0628\u0627", "level": "governorate", "admin_code": "JO-MD", "population": 178000, "center": [35.78, 31.72], "area_sqkm": 940, "kindergarten_status": 100.0, "children_enrollment": 93.45, "staff_classrooms": 98.15, "safety_incidents": 100.0, "reports_attendance": 97.84, "tasks_governance": 94.0, "kindergartens_active": 41, "kindergartens_inactive": 0, "enrolled_children": 1028, "unregistered_children": 72, "supervisors_count": 16, "classes_count": 54, "classes_without_supervisor": 1, "critical_incidents": 0, "protection_issues": 0, "daily_reports_count": 42, "absences_total": 36, "absences_health_alerts": 2, "tasks_overdue": 0, "governance_score": 91.0, "training_completion_pct": 95.0}, "geometry": {"type": "Polygon", "coordinates": [[[35.5, 31.26], [35.56, 31.24], [35.62, 31.24], [35.68, 31.26], [35.74, 31.28], [35.8, 31.3], [35.86, 31.34], [35.9, 31.38], [35.92, 31.44], [35.92, 31.5], [35.9, 31.56], [35.86, 31.6], [35.8, 31.64], [35.74, 31.66], [35.68, 31.66], [35.62, 31.64], [35.56, 31.6], [35.52, 31.56], [35.48, 31.5], [35.46, 31.44], [35.46, 31.38], [35.46, 31.32], [35.48, 31.28], [35.5, 31.26]]]}}, {"type": "Feature", "properties": {"id": "JO-JA", "name": "Jerash", "name_ar": "\u062c\u0631\u0634", "level": "governorate", "admin_code": "JO-JA", "population": 201000, "center": [35.9, 32.3], "area_sqkm": 410, "kindergarten_status": 96.88, "children_enrollment": 93.98, "staff_classrooms": 95.12, "safety_incidents": 100.0, "reports_attendance": 98.16, "tasks_governance": 87.35, "kindergartens_active": 31, "kindergartens_inactive": 1, "enrolled_children": 765, "unregistered_children": 49, "supervisors_count": 12, "classes_count": 41, "classes_without_supervisor": 2, "critical_incidents": 0, "protection_issues": 0, "daily_reports_count": 32, "absences_total": 30, "absences_health_alerts": 1, "tasks_overdue": 0, "governance_score": 82.5, "training_completion_pct": 87.0}, "geometry": {"type": "Polygon", "coordinates": [[[35.86, 32.18], [35.9, 32.15], [35.94, 32.14], [35.98, 32.15], [36.02, 32.16], [36.06, 32.18], [36.1, 32.2], [36.14, 32.24], [36.16, 32.28], [36.16, 32.34], [36.14, 32.4], [36.1, 32.44], [36.06, 32.42], [36.02, 32.4], [35.98, 32.38], [35.94, 32.36], [35.9, 32.34], [35.86, 32.32], [35.84, 32.28], [35.84, 32.24], [35.86, 32.18]]]}}, {"type": "Feature", "properties": {"id": "JO-AJ", "name": "Ajloun", "name_ar": "\u0639\u062c\u0644\u0648\u0646", "level": "governorate", "admin_code": "JO-AJ", "population": 176000, "center": [35.72, 32.33], "area_sqkm": 420, "kindergarten_status": 100.0, "children_enrollment": 94.15, "staff_classrooms": 96.97, "safety_incidents": 100.0, "reports_attendance": 97.98, "tasks_governance": 96.65, "kindergartens_active": 25, "kindergartens_inactive": 0, "enrolled_children": 595, "unregistered_children": 37, "supervisors_count": 10, "classes_count": 33, "classes_without_supervisor": 1, "critical_incidents": 0, "protection_issues": 0, "daily_reports_count": 25, "absences_total": 22, "absences_health_alerts": 1, "tasks_overdue": 0, "governance_score": 94.5, "training_completion_pct": 98.0}, "geometry": {"type": "Polygon", "coordinates": [[[35.58, 32.24], [35.62, 32.22], [35.66, 32.22], [35.7, 32.22], [35.74, 32.24], [35.76, 32.28], [35.78, 32.32], [35.78, 32.38], [35.76, 32.42], [35.72, 32.44], [35.68, 32.42], [35.64, 32.4], [35.6, 32.38], [35.56, 32.34], [35.54, 32.3], [35.54, 32.26], [35.56, 32.24], [35.58, 32.24]]]}}, {"type": "Feature", "properties": {"id": "JO-MA", "name": "Mafraq", "name_ar": "\u0627\u0644\u0645\u0641\u0631\u0642", "level": "governorate", "admin_code": "JO-MA", "population": 590700, "center": [36.84, 32.18], "area_sqkm": 13620, "kindergarten_status": 95.16, "children_enrollment": 93.39, "staff_classrooms": 91.89, "safety_incidents": 90.0, "reports_attendance": 95.47, "tasks_governance": 77.75, "kindergartens_active": 59, "kindergartens_inactive": 3, "enrolled_children": 1498, "unregistered_children": 106, "supervisors_count": 21, "classes_count": 74, "classes_without_supervisor": 6, "critical_incidents": 1, "protection_issues": 0, "daily_reports_count": 57, "absences_total": 66, "absences_health_alerts": 5, "tasks_overdue": 2, "governance_score": 75.5, "training_completion_pct": 80.0}, "geometry": {"type": "Polygon", "coordinates": [[[35.98, 32.06], [36.08, 32.02], [36.18, 32.0], [36.28, 32.0], [36.38, 32.02], [36.48, 32.02], [36.58, 32.0], [36.68, 31.98], [36.78, 31.96], [36.88, 31.94], [36.98, 31.94], [37.08, 31.94], [37.18, 31.94], [37.28, 31.94], [37.38, 31.92], [37.48, 31.9], [37.58, 31.88], [37.68, 31.86], [37.78, 31.84], [37.88, 31.82], [37.98, 31.8], [38.08, 31.78], [38.18, 31.76], [38.28, 31.74], [38.38, 31.72], [38.5, 31.72], [38.6, 31.72], [38.7, 31.72], [38.8, 31.72], [38.9, 31.72], [39.0, 31.72], [39.1, 31.72], [39.2, 31.72], [39.3, 31.74], [39.3, 31.88], [39.3, 32.0], [39.3, 32.12], [39.3, 32.24], [39.3, 32.36], [39.28, 32.48], [39.26, 32.6], [39.24, 32.72], [39.22, 32.84], [39.18, 32.96], [39.14, 33.08], [39.1, 33.2], [39.06, 33.28], [39.0, 33.34], [38.92, 33.36], [38.82, 33.36], [38.7, 33.36], [38.58, 33.36], [38.46, 33.36], [38.34, 33.36], [38.22, 33.36], [38.1, 33.36], [37.98, 33.36], [37.86, 33.36], [37.72, 33.36], [37.58, 33.36], [37.44, 33.38], [37.3, 33.38], [37.16, 33.38], [37.02, 33.38], [36.88, 33.38], [36.72, 33.38], [36.56, 33.38], [36.4, 33.36], [36.24, 33.34], [36.1, 33.3], [35.98, 33.26], [35.86, 33.2], [35.76, 33.14], [35.68, 33.06], [35.62, 32.96], [35.58, 32.86], [35.56, 32.76], [35.55, 32.66], [35.55, 32.56], [35.56, 32.46], [35.58, 32.36], [35.62, 32.26], [35.66, 32.16], [35.7, 32.1], [35.76, 32.06], [35.84, 32.04], [35.92, 32.04], [35.98, 32.06], [35.98, 32.06]]]}}, {"type": "Feature", "properties": {"id": "JO-KA", "name": "Karak", "name_ar": "\u0627\u0644\u0643\u0631\u0643", "level": "governorate", "admin_code": "JO-KA", "population": 328600, "center": [35.7, 31.18], "area_sqkm": 3495, "kindergarten_status": 96.3, "children_enrollment": 93.48, "staff_classrooms": 93.94, "safety_incidents": 100.0, "reports_attendance": 96.34, "tasks_governance": 86.3, "kindergartens_active": 52, "kindergartens_inactive": 2, "enrolled_children": 1320, "unregistered_children": 92, "supervisors_count": 19, "classes_count": 66, "classes_without_supervisor": 4, "critical_incidents": 0, "protection_issues": 0, "daily_reports_count": 51, "absences_total": 56, "absences_health_alerts": 4, "tasks_overdue": 1, "governance_score": 83.5, "training_completion_pct": 88.5}, "geometry": {"type": "Polygon", "coordinates": [[[35.36, 30.74], [35.4, 30.7], [35.46, 30.68], [35.52, 30.68], [35.58, 30.7], [35.64, 30.72], [35.7, 30.74], [35.76, 30.76], [35.8, 30.8], [35.84, 30.86], [35.88, 30.92], [35.92, 31.0], [35.94, 31.08], [35.94, 31.16], [35.92, 31.24], [35.9, 31.3], [35.86, 31.36], [35.82, 31.42], [35.78, 31.46], [35.74, 31.48], [35.7, 31.48], [35.66, 31.46], [35.62, 31.44], [35.58, 31.4], [35.56, 31.34], [35.54, 31.28], [35.52, 31.22], [35.5, 31.16], [35.48, 31.1], [35.46, 31.04], [35.44, 30.96], [35.42, 30.88], [35.4, 30.82], [35.38, 30.78], [35.36, 30.74]]]}}, {"type": "Feature", "properties": {"id": "JO-TA", "name": "Tafilah", "name_ar": "\u0627\u0644\u0637\u0641\u064a\u0644\u0629", "level": "governorate", "admin_code": "JO-TA", "population": 96400, "center": [35.58, 30.72], "area_sqkm": 1929, "kindergarten_status": 100.0, "children_enrollment": 94.72, "staff_classrooms": 96.43, "safety_incidents": 100.0, "reports_attendance": 97.81, "tasks_governance": 93.6, "kindergartens_active": 21, "kindergartens_inactive": 0, "enrolled_children": 502, "unregistered_children": 28, "supervisors_count": 8, "classes_count": 28, "classes_without_supervisor": 1, "critical_incidents": 0, "protection_issues": 0, "daily_reports_count": 22, "absences_total": 17, "absences_health_alerts": 1, "tasks_overdue": 0, "governance_score": 90.5, "training_completion_pct": 94.5}, "geometry": {"type": "Polygon", "coordinates": [[[35.24, 30.4], [35.28, 30.36], [35.34, 30.34], [35.4, 30.34], [35.46, 30.34], [35.52, 30.34], [35.58, 30.34], [35.64, 30.34], [35.7, 30.34], [35.76, 30.34], [35.82, 30.34], [35.88, 30.34], [35.92, 30.38], [35.94, 30.44], [35.94, 30.5], [35.92, 30.56], [35.9, 30.62], [35.86, 30.68], [35.82, 30.72], [35.78, 30.76], [35.72, 30.78], [35.66, 30.78], [35.6, 30.78], [35.54, 30.76], [35.48, 30.74], [35.42, 30.72], [35.36, 30.68], [35.3, 30.64], [35.26, 30.58], [35.24, 30.52], [35.22, 30.46], [35.22, 30.42], [35.24, 30.4]]]}}, {"type": "Feature", "properties": {"id": "JO-MN", "name": "Ma'an", "name_ar": "\u0645\u0639\u0627\u0646", "level": "governorate", "admin_code": "JO-MN", "population": 150800, "center": [35.78, 30.12], "area_sqkm": 32832, "kindergarten_status": 94.74, "children_enrollment": 93.79, "staff_classrooms": 93.48, "safety_incidents": 100.0, "reports_attendance": 94.81, "tasks_governance": 74.4, "kindergartens_active": 36, "kindergartens_inactive": 2, "enrolled_children": 876, "unregistered_children": 58, "supervisors_count": 14, "classes_count": 46, "classes_without_supervisor": 3, "critical_incidents": 0, "protection_issues": 0, "daily_reports_count": 35, "absences_total": 43, "absences_health_alerts": 5, "tasks_overdue": 2, "governance_score": 71.5, "training_completion_pct": 75.5}, "geometry": {"type": "Polygon", "coordinates": [[[35.06, 29.56], [35.1, 29.52], [35.16, 29.5], [35.22, 29.5], [35.28, 29.5], [35.34, 29.5], [35.4, 29.5], [35.46, 29.5], [35.52, 29.5], [35.58, 29.5], [35.64, 29.5], [35.7, 29.5], [35.76, 29.5], [35.82, 29.5], [35.88, 29.5], [35.94, 29.5], [36.0, 29.5], [36.06, 29.5], [36.12, 29.5], [36.18, 29.5], [36.24, 29.5], [36.3, 29.5], [36.36, 29.5], [36.42, 29.5], [36.48, 29.5], [36.54, 29.5], [36.6, 29.5], [36.66, 29.5], [36.72, 29.5], [36.78, 29.5], [36.84, 29.5], [36.9, 29.5], [36.96, 29.5], [37.02, 29.5], [37.08, 29.5], [37.14, 29.5], [37.2, 29.48], [37.26, 29.48], [37.32, 29.48], [37.38, 29.48], [37.44, 29.48], [37.5, 29.48], [37.56, 29.48], [37.62, 29.48], [37.68, 29.48], [37.74, 29.48], [37.8, 29.48], [37.86, 29.48], [37.92, 29.48], [37.98, 29.48], [38.04, 29.48], [38.1, 29.48], [38.16, 29.48], [38.22, 29.48], [38.28, 29.48], [38.34, 29.48], [38.4, 29.48], [38.46, 29.48], [38.5, 29.5], [38.5, 29.58], [38.5, 29.66], [38.5, 29.74], [38.5, 29.82], [38.5, 29.9], [38.5, 29.98], [38.5, 30.06], [38.5, 30.14], [38.5, 30.22], [38.5, 30.3], [38.5, 30.38], [38.48, 30.42], [38.44, 30.42], [38.38, 30.42], [38.32, 30.42], [38.26, 30.42], [38.2, 30.42], [38.14, 30.42], [38.08, 30.42], [38.02, 30.42], [37.96, 30.42], [37.9, 30.42], [37.84, 30.42], [37.78, 30.42], [37.72, 30.42], [37.66, 30.42], [37.6, 30.42], [37.54, 30.42], [37.48, 30.42], [37.42, 30.42], [37.36, 30.42], [37.3, 30.42], [37.24, 30.42], [37.18, 30.42], [37.12, 30.42], [37.06, 30.42], [37.0, 30.42], [36.94, 30.42], [36.88, 30.42], [36.82, 30.42], [36.76, 30.42], [36.7, 30.42], [36.64, 30.42], [36.58, 30.42], [36.52, 30.42], [36.46, 30.42], [36.4, 30.42], [36.34, 30.42], [36.28, 30.42], [36.22, 30.42], [36.16, 30.42], [36.1, 30.42], [36.04, 30.42], [35.98, 30.42], [35.92, 30.42], [35.86, 30.42], [35.8, 30.42], [35.74, 30.42], [35.68, 30.42], [35.62, 30.42], [35.56, 30.42], [35.5, 30.42], [35.44, 30.42], [35.38, 30.42], [35.32, 30.42], [35.26, 30.4], [35.2, 30.38], [35.14, 30.36], [35.1, 30.34], [35.06, 30.32], [35.04, 30.28], [35.02, 30.24], [35.0, 30.2], [34.98, 30.16], [34.96, 30.12], [34.94, 30.08], [34.92, 30.04], [34.9, 30.0], [34.9, 29.88], [34.9, 29.76], [34.9, 29.64], [34.9, 29.56], [34.92, 29.52], [34.96, 29.5], [35.0, 29.48], [35.04, 29.46], [35.06, 29.42], [35.06, 29.56]]]}}, {"type": "Feature", "properties": {"id": "JO-AQ", "name": "Aqaba", "name_ar": "\u0627\u0644\u0639\u0642\u0628\u0629", "level": "governorate", "admin_code": "JO-AQ", "population": 199000, "center": [35.02, 29.54], "area_sqkm": 6900, "kindergarten_status": 96.55, "children_enrollment": 93.84, "staff_classrooms": 94.59, "safety_incidents": 100.0, "reports_attendance": 98.06, "tasks_governance": 90.4, "kindergartens_active": 28, "kindergartens_inactive": 1, "enrolled_children": 685, "unregistered_children": 45, "supervisors_count": 11, "classes_count": 37, "classes_without_supervisor": 2, "critical_incidents": 0, "protection_issues": 0, "daily_reports_count": 28, "absences_total": 28, "absences_health_alerts": 1, "tasks_overdue": 0, "governance_score": 86.5, "training_completion_pct": 90.5}, "geometry": {"type": "Polygon", "coordinates": [[[34.9, 29.18], [34.92, 29.14], [34.96, 29.12], [35.0, 29.12], [35.04, 29.12], [35.08, 29.12], [35.12, 29.12], [35.16, 29.12], [35.2, 29.12], [35.24, 29.12], [35.28, 29.12], [35.32, 29.14], [35.36, 29.16], [35.4, 29.18], [35.44, 29.2], [35.48, 29.22], [35.52, 29.24], [35.56, 29.26], [35.6, 29.28], [35.64, 29.3], [35.68, 29.32], [35.72, 29.34], [35.76, 29.36], [35.8, 29.38], [35.84, 29.4], [35.88, 29.42], [35.9, 29.46], [35.9, 29.5], [35.88, 29.54], [35.86, 29.58], [35.84, 29.62], [35.82, 29.66], [35.8, 29.7], [35.78, 29.74], [35.76, 29.78], [35.74, 29.82], [35.72, 29.86], [35.7, 29.9], [35.68, 29.94], [35.66, 29.98], [35.64, 30.02], [35.62, 30.06], [35.6, 30.1], [35.58, 30.14], [35.56, 30.18], [35.54, 30.22], [35.52, 30.26], [35.5, 30.3], [35.48, 30.34], [35.46, 30.38], [35.44, 30.42], [35.42, 30.46], [35.4, 30.5], [35.38, 30.54], [35.36, 30.58], [35.34, 30.62], [35.32, 30.66], [35.3, 30.7], [35.28, 30.74], [35.26, 30.78], [35.24, 30.82], [35.22, 30.86], [35.2, 30.9], [35.18, 30.94], [35.16, 30.98], [35.14, 31.02], [35.12, 31.06], [35.1, 31.1], [35.08, 31.14], [35.06, 31.18], [35.04, 31.22], [35.02, 31.26], [35.0, 31.3], [34.98, 31.34], [34.96, 31.38], [34.94, 31.42], [34.92, 31.46], [34.9, 31.5], [34.9, 31.42], [34.9, 31.34], [34.9, 31.26], [34.9, 31.18], [34.9, 31.1], [34.9, 31.02], [34.9, 30.94], [34.9, 30.86], [34.9, 30.78], [34.9, 30.7], [34.9, 30.62], [34.9, 30.54], [34.9, 30.46], [34.9, 30.38], [34.9, 30.3], [34.9, 30.22], [34.9, 30.14], [34.9, 30.06], [34.9, 29.98], [34.9, 29.9], [34.9, 29.82], [34.9, 29.74], [34.9, 29.66], [34.9, 29.58], [34.9, 29.5], [34.9, 29.42], [34.9, 29.34], [34.9, 29.26], [34.9, 29.18]]]}}]}